LANDSAT 9               
1 49260U 21088A   24135.93483048  .00001429  00000+0  32687-3 0  9998
2 49260  98.1882 206.1147 0001258  89.3657 270.7686 14.57136208139853
